{
  "type": "FeatureCollection",
  "name": "kontrolni_parcely_2_21_ruian",
  "crs": {
    "type": "name",
    "properties": {
      "name": "EPSG:5514"
    }
  },
  "source": "https://ags.cuzk.gov.cz/arcgis/rest/services/RUIAN/MapServer/5/query",
  "retrieved": "2026-07-23",
  "features": [
    {
      "type": "Feature",
      "geometry": {
        "type": "Polygon",
        "coordinates": [
          [
            [
              -705688.55000000075,
              -1118202.629999999
            ],
            [
              -705703.10000000149,
              -1118161.6499999985
            ],
            [
              -705713.4299999997,
              -1118165.6600000001
            ],
            [
              -705698.87999999896,
              -1118206.4600000009
            ],
            [
              -705688.55000000075,
              -1118202.629999999
            ]
          ]
        ]
      },
      "properties": {
        "id": 2959912304,
        "cisloparcely": "2",
        "vymeraparcely": 479
      }
    },
    {
      "type": "Feature",
      "geometry": {
        "type": "Polygon",
        "coordinates": [
          [
            [
              -705803.55999999866,
              -1118202.8999999985
            ],
            [
              -705800.6400000006,
              -1118183.0300000012
            ],
            [
              -705810.07999999821,
              -1118173.2899999991
            ],
            [
              -705818.98999999836,
              -1118171.1700000018
            ],
            [
              -705823.1099999994,
              -1118170.1900000013
            ],
            [
              -705842.25,
              -1118180.5
            ],
            [
              -705857,
              -1118190.9699999988
            ],
            [
              -705854,
              -1118193.129999999
            ],
            [
              -705830.44000000134,
              -1118210.1099999994
            ],
            [
              -705825.58999999985,
              -1118209.8999999985
            ],
            [
              -705805.66000000015,
              -1118205.1900000013
            ],
            [
              -705803.82999999821,
              -1118204.7600000016
            ],
            [
              -705803.55999999866,
              -1118202.8999999985
            ]
          ]
        ]
      },
      "properties": {
        "id": 2959986304,
        "cisloparcely": "21",
        "vymeraparcely": 1457
      }
    }
  ]
}
