{
  "type": "FeatureCollection",
  "crs": {
    "type": "name",
    "properties": {
      "name": "EPSG:5514"
    }
  },
  "features": [
    {
      "type": "Feature",
      "geometry": {
        "type": "Polygon",
        "coordinates": [
          [
            [-705744.8299999982, -1118184.6700000018],
            [-705722.8500000015, -1118172.6000000015],
            [-705745.2100000009, -1118131.2699999996],
            [-705754.1099999994, -1118136.039999999],
            [-705759.9699999988, -1118139.1000000015],
            [-705790.4100000001, -1118154.8299999982],
            [-705804.3000000007, -1118162.0],
            [-705791.7600000016, -1118189.7699999996],
            [-705785.870000001, -1118202.8200000003],
            [-705780.4899999984, -1118211.3500000015],
            [-705779.9200000018, -1118210.9699999988],
            [-705764.2699999996, -1118200.6700000018],
            [-705756.5199999996, -1118195.5700000003],
            [-705758.5, -1118192.1799999997],
            [-705755.620000001, -1118190.6000000015],
            [-705744.8299999982, -1118184.6700000018]
          ]
        ]
      },
      "properties": {
        "id": 2959911304,
        "cisloparcely": "1",
        "vymeraparcely": 3543,
        "platiod": 761443200000,
        "source": "https://ags.cuzk.gov.cz/arcgis/rest/services/RUIAN/MapServer/5/query?where=id%3D2959911304&outFields=id%2Ccisloparcely%2Cvymeraparcely%2Cplatiod&returnGeometry=true&outSR=5514&f=geojson",
        "retrieved": "2026-07-23"
      }
    }
  ]
}
