{"type":"FeatureCollection","crs":{"type":"name","properties":{"name":"EPSG:5514"}},"features":[{"type":"Feature","geometry":{"type":"Polygon","coordinates":[[[-705936.60000000149,-1118270.1400000006],[-705916.6799999997,-1118283.8299999982],[-705895.35000000149,-1118253.25],[-705900.83999999985,-1118249.5700000003],[-705905.87000000104,-1118256.9299999997],[-705908.01000000164,-1118255.4600000009],[-705911.55999999866,-1118260.6600000001],[-705909.42000000179,-1118262.129999999],[-705917.28999999911,-1118273.6499999985],[-705931.55999999866,-1118263.3200000003],[-705932.10000000149,-1118262.9400000013],[-705933.53000000119,-1118264.9800000004],[-705936.60000000149,-1118270.1400000006]]]},"properties":{"kod":8831181,"cisladomovni":"1","identifikacniparcela":2959930304,"typstavebnihoobjektukod":1,"zpusobvyuzitikod":7,"dokonceni":1695340800000,"zastavenaplocha":415}},{"type":"Feature","geometry":{"type":"Polygon","coordinates":[[[-705944.25,-1118257.120000001],[-705933.53000000119,-1118264.9800000004],[-705932.10000000149,-1118262.9400000013],[-705931.55999999866,-1118263.3200000003],[-705920.26999999955,-1118247.3099999987],[-705927.71000000089,-1118242.1000000015],[-705928.87999999896,-1118243.7699999996],[-705934.21999999881,-1118251.3900000006],[-705935.8599999994,-1118253.7399999984],[-705939.8200000003,-1118250.9299999997],[-705944.25,-1118257.120000001]]]},"properties":{"kod":48290319,"cisladomovni":"","identifikacniparcela":2959931304,"typstavebnihoobjektukod":3,"zpusobvyuzitikod":19,"dokonceni":null,"zastavenaplocha":null}}]}