{"type":"FeatureCollection","crs":{"type":"name","properties":{"name":"EPSG:5514"}},"features":[{"type":"Feature","id":6521341,"geometry":{"type":"Polygon","coordinates":[[[-705895.35000000149,-1118253.25],[-705900.83999999985,-1118249.5700000003],[-705903,-1118248.120000001],[-705905.73999999836,-1118246.3399999999],[-705914.92000000179,-1118240.3999999985],[-705915.55000000075,-1118239.9899999984],[-705920.26999999955,-1118247.3099999987],[-705931.55999999866,-1118263.3200000003],[-705932.10000000149,-1118262.9400000013],[-705933.53000000119,-1118264.9800000004],[-705936.60000000149,-1118270.1400000006],[-705939.30999999866,-1118272.7199999988],[-705916.6799999997,-1118283.8299999982],[-705895.35000000149,-1118253.25]]]},"properties":{"objectid":6521341,"id":2959930304,"nespravny":null,"kmenovecislo":29,"poddelenicisla":1,"vymeraparcely":941,"zpusobyvyuzitipozemku":null,"druhcislovanikod":1,"druhpozemkukod":13,"katastralniuzemi":775606,"platiod":-189475200000,"platido":null,"idtransakce":0,"rizeniid":2480007304,"cisloparcely":"29/1","zdroj":1,"st_area(shape)":935.63385000000005,"st_length(shape)":127.85603076208596}},{"type":"Feature","id":6521351,"geometry":{"type":"Polygon","coordinates":[[[-705733.58999999985,-1118072.5199999996],[-705732.96000000089,-1118085.7199999988],[-705718.96000000089,-1118104.9600000009],[-705716.67000000179,-1118103.629999999],[-705730.41000000015,-1118084.75],[-705731.62999999896,-1118078.370000001],[-705723.55999999866,-1118069.6099999994],[-705725.0700000003,-1118064.120000001],[-705733.58999999985,-1118072.5199999996]]]},"properties":{"objectid":6521351,"id":2959994304,"nespravny":null,"kmenovecislo":29,"poddelenicisla":null,"vymeraparcely":152,"zpusobyvyuzitipozemku":27,"druhcislovanikod":2,"druhpozemkukod":14,"katastralniuzemi":775606,"platiod":920851200000,"platido":null,"idtransakce":0,"rizeniid":2435461304,"cisloparcely":"29","zdroj":1,"st_area(shape)":143.8141,"st_length(shape)":99.072761351008253}},{"type":"Feature","id":6521360,"geometry":{"type":"Polygon","coordinates":[[[-705933.53000000119,-1118264.9800000004],[-705932.10000000149,-1118262.9400000013],[-705931.55999999866,-1118263.3200000003],[-705920.26999999955,-1118247.3099999987],[-705927.71000000089,-1118242.1000000015],[-705928.87999999896,-1118243.7699999996],[-705934.21999999881,-1118251.3900000006],[-705935.8599999994,-1118253.7399999984],[-705939.8200000003,-1118250.9299999997],[-705944.25,-1118257.120000001],[-705933.53000000119,-1118264.9800000004]]]},"properties":{"objectid":6521360,"id":2959931304,"nespravny":null,"kmenovecislo":29,"poddelenicisla":2,"vymeraparcely":235,"zpusobyvyuzitipozemku":null,"druhcislovanikod":1,"druhpozemkukod":13,"katastralniuzemi":775606,"platiod":1109635200000,"platido":null,"idtransakce":0,"rizeniid":2940595304,"cisloparcely":"29/2","zdroj":1,"st_area(shape)":234.81505000000001,"st_length(shape)":71.79477115450085}},{"type":"Feature","id":6521451,"geometry":{"type":"Polygon","coordinates":[[[-705744.82999999821,-1118184.6700000018],[-705722.85000000149,-1118172.6000000015],[-705745.21000000089,-1118131.2699999996],[-705754.1099999994,-1118136.0399999991],[-705759.96999999881,-1118139.1000000015],[-705790.41000000015,-1118154.8299999982],[-705804.30000000075,-1118162],[-705791.76000000164,-1118189.7699999996],[-705785.87000000104,-1118202.8200000003],[-705780.48999999836,-1118211.3500000015],[-705779.92000000179,-1118210.9699999988],[-705764.26999999955,-1118200.6700000018],[-705756.51999999955,-1118195.5700000003],[-705758.5,-1118192.1799999997],[-705755.62000000104,-1118190.6000000015],[-705744.82999999821,-1118184.6700000018]]]},"properties":{"objectid":6521451,"id":2959911304,"nespravny":null,"kmenovecislo":1,"poddelenicisla":null,"vymeraparcely":3543,"zpusobyvyuzitipozemku":null,"druhcislovanikod":1,"druhpozemkukod":13,"katastralniuzemi":775606,"platiod":761443200000,"platido":null,"idtransakce":0,"rizeniid":2435342304,"cisloparcely":"1","zdroj":1,"st_area(shape)":3404.1213499999999,"st_length(shape)":241.76427768828557}}]}