{"type":"FeatureCollection","crs":{"type":"name","properties":{"name":"EPSG:5514"}},"features":[{"type":"Feature","id":323831985,"geometry":{"type":"Point","coordinates":[-705859.89299999923,-1118179.6031000018]},"properties":{"OBJECTID":323831985,"IDOB_PG":null,"prvekId":687522,"prStavId":140254,"rejstrikoveCisloUSKP":"28918/3-3351","typOchranyKod":"KP","typOchranyNazev":"kulturní památka","upresneniTypuOchrany":"NEM","chraneno":1,"fazeOchranyId":5,"fazeOchranyKod":"P","fazeOchranyNazev":"památkově chráněno","NazevPrvku":"kaple s křížem","datumOchranyOd":-368146800000,"datumOchranyDo":null,"hlavniPrvek":1,"NazevPrStavu":"kaple","PI_druh":"PB","prir_cis":18413,"KodStavObjRUIAN":39261450}},{"type":"Feature","id":323871415,"geometry":{"type":"Point","coordinates":[-705896.72340000048,-1118177.9296999983]},"properties":{"OBJECTID":323871415,"IDOB_PG":null,"prvekId":694394,"prStavId":147883,"rejstrikoveCisloUSKP":"36052/3-3350","typOchranyKod":"KP","typOchranyNazev":"kulturní památka","upresneniTypuOchrany":"NEM","chraneno":1,"fazeOchranyId":7,"fazeOchranyKod":"R","fazeOchranyNazev":"památkově chráněno, rozsah revidován","NazevPrvku":"venkovská usedlost","datumOchranyOd":-368146800000,"datumOchranyDo":null,"hlavniPrvek":1,"NazevPrStavu":"venkovská usedlost","PI_druh":"PB","prir_cis":86079,"KodStavObjRUIAN":8831190}}]}